1 08820U 76039A   03200.68371862  .00000011  00000-0  10000-3 0  9401
2 08820 109.8036 192.7200 0044517 294.2988  65.2975  6.38664429379136
